{"type": "FeatureCollection", "features": [ {"type": "Feature", "properties": {"norad_id": 34031, "name": "COSMOS 2251 DEB", "group": "cosmos-2251-debris", "lat": 35.13600691421378, "lon": -39.140525332246305, "alt_km": 702.4408266016217, "timestamp": "2025-12-03T22:42:33.026380+00:00", "meta": {"OBJECT_NAME": "COSMOS 2251 DEB", "OBJECT_ID": "1993-036HS", "EPOCH": "2025-12-03T12:19:06.369888", "MEAN_MOTION": 14.59503772, "ECCENTRICITY": 0.0022932, "INCLINATION": 74.0116, "RA_OF_ASC_NODE": 153.3267, "ARG_OF_PERICENTER": 273.9657, "MEAN_ANOMALY": 115.5006, "EPHEMERIS_TYPE": 0, "CLASSIFICATION_TYPE": "U", "NORAD_CAT_ID": 34031, "ELEMENT_SET_NO": 999, "REV_AT_EPOCH": 88431, "BSTAR": 0.00171, "MEAN_MOTION_DOT": 8.127e-05, "MEAN_MOTION_DDOT": 0}, "tle": {"line1": "1 34031U 93036HS  25337.51326817  .00008127  00000+0  17100-2 0  9993", "line2": "2 34031  74.0116 153.3267 0022932 273.9657 115.5006 14.59503772884311"}}, "geometry": {"type": "Point", "coordinates": [-39.140525332246305, 35.13600691421378]}}, {"type": "Feature", "properties": {"norad_id": 34035, "name": "COSMOS 2251 DEB", "group": "cosmos-2251-debris", "lat": -11.130227901630548, "lon": -171.10306554345183, "alt_km": 755.1484891029286, "timestamp": "2025-12-03T22:42:33.026390+00:00", "meta": {"OBJECT_NAME": "COSMOS 2251 DEB", "OBJECT_ID": "1993-036HW", "EPOCH": "2025-12-03T12:35:45.585024", "MEAN_MOTION": 14.51755912, "ECCENTRICITY": 0.0044109, "INCLINATION": 74.0658, "RA_OF_ASC_NODE": 6.4666, "ARG_OF_PERICENTER": 10.2404, "MEAN_ANOMALY": 139.8596, "EPHEMERIS_TYPE": 0, "CLASSIFICATION_TYPE": "U", "NORAD_CAT_ID": 34035, "ELEMENT_SET_NO": 999, "REV_AT_EPOCH": 87832, "BSTAR": 0.0020195, "MEAN_MOTION_DOT": 8.201e-05, "MEAN_MOTION_DDOT": 0}, "tle": {"line1": "1 34035U 93036HW  25337.52483316  .00008201  00000+0  20195-2 0  9997", "line2": "2 34035  74.0658   6.4666 0044109  10.2404 139.8596 14.51755912878323"}}, "geometry": {"type": "Point", "coordinates": [-171.10306554345183, -11.130227901630548]}}, {"type": "Feature", "properties": {"norad_id": 34036, "name": "COSMOS 2251 DEB", "group": "cosmos-2251-debris", "lat": -4.940840664036045, "lon": -11.580626914015532, "alt_km": 579.3777228820563, "timestamp": "2025-12-03T22:42:33.026399+00:00", "meta": {"OBJECT_NAME": "COSMOS 2251 DEB", "OBJECT_ID": "1993-036HX", "EPOCH": "2025-12-03T12:14:21.178176", "MEAN_MOTION": 14.93783049, "ECCENTRICITY": 0.0014881, "INCLINATION": 74.0201, "RA_OF_ASC_NODE": 167.8784, "ARG_OF_PERICENTER": 202.2418, "MEAN_ANOMALY": 157.8122, "EPHEMERIS_TYPE": 0, "CLASSIFICATION_TYPE": "U", "NORAD_CAT_ID": 34036, "ELEMENT_SET_NO": 999, "REV_AT_EPOCH": 88432, "BSTAR": 0.0043072, "MEAN_MOTION_DOT": 0.00046042, "MEAN_MOTION_DDOT": 0}, "tle": {"line1": "1 34036U 93036HX  25337.50996734  .00046042  00000+0  43072-2 0  9993", "line2": "2 34036  74.0201 167.8784 0014881 202.2418 157.8122 14.93783049884323"}}, "geometry": {"type": "Point", "coordinates": [-11.580626914015532, -4.940840664036045]}}, {"type": "Feature", "properties": {"norad_id": 34037, "name": "COSMOS 2251 DEB", "group": "cosmos-2251-debris", "lat": -24.23368371986717, "lon": 59.141398400897906, "alt_km": 811.9171017075805, "timestamp": "2025-12-03T22:42:33.026408+00:00", "meta": {"OBJECT_NAME": "COSMOS 2251 DEB", "OBJECT_ID": "1993-036HY", "EPOCH": "2025-12-03T07:45:54.663840", "MEAN_MOTION": 14.34620684, "ECCENTRICITY": 0.0052422, "INCLINATION": 74.0527, "RA_OF_ASC_NODE": 67.6752, "ARG_OF_PERICENTER": 120.5363, "MEAN_ANOMALY": 240.0978, "EPHEMERIS_TYPE": 0, "CLASSIFICATION_TYPE": "U", "NORAD_CAT_ID": 34037, "ELEMENT_SET_NO": 999, "REV_AT_EPOCH": 87582, "BSTAR": 0.00082651, "MEAN_MOTION_DOT": 2.348e-05, "MEAN_MOTION_DDOT": 0}, "tle": {"line1": "1 34037U 93036HY  25337.32354935  .00002348  00000+0  82651-3 0  9993", "line2": "2 34037  74.0527  67.6752 0052422 120.5363 240.0978 14.34620684875820"}}, "geometry": {"type": "Point", "coordinates": [59.141398400897906, -24.23368371986717]}}, {"type": "Feature", "properties": {"norad_id": 34040, "name": "COSMOS 2251 DEB", "group": "cosmos-2251-debris", "lat": 14.866579779640913, "lon": -103.98830850627421, "alt_km": 1159.190047050085, "timestamp": "2025-12-03T22:42:33.026417+00:00", "meta": {"OBJECT_NAME": "COSMOS 2251 DEB", "OBJECT_ID": "1993-036JB", "EPOCH": "2025-12-03T07:53:53.128032", "MEAN_MOTION": 13.68359761, "ECCENTRICITY": 0.0342814, "INCLINATION": 73.9554, "RA_OF_ASC_NODE": 81.412, "ARG_OF_PERICENTER": 36.7341, "MEAN_ANOMALY": 325.6746, "EPHEMERIS_TYPE": 0, "CLASSIFICATION_TYPE": "U", "NORAD_CAT_ID": 34040, "ELEMENT_SET_NO": 999, "REV_AT_EPOCH": 83471, "BSTAR": 0.00045972, "MEAN_MOTION_DOT": 5.71e-06, "MEAN_MOTION_DDOT": 0}, "tle": {"line1": "1 34040U 93036JB  25337.32908713  .00000571  00000+0  45972-3 0  9997", "line2": "2 34040  73.9554  81.4120 0342814  36.7341 325.6746 13.68359761834713"}}, "geometry": {"type": "Point", "coordinates": [-103.98830850627421, 14.866579779640913]}}, {"type": "Feature", "properties": {"norad_id": 34045, "name": "COSMOS 2251 DEB", "group": "cosmos-2251-debris", "lat": 36.32479654880974, "lon": -20.929797303303154, "alt_km": 757.762833044746, "timestamp": "2025-12-03T22:42:33.026427+00:00", "meta": {"OBJECT_NAME": "COSMOS 2251 DEB", "OBJECT_ID": "1993-036JG", "EPOCH": "2025-12-03T09:53:33.190944", "MEAN_MOTION": 14.34060223, "ECCENTRICITY": 0.0025348, "INCLINATION": 74.0386, "RA_OF_ASC_NODE": 327.8996, "ARG_OF_PERICENTER": 54.2394, "MEAN_ANOMALY": 108.0917, "EPHEMERIS_TYPE": 0, "CLASSIFICATION_TYPE": "U", "NORAD_CAT_ID": 34045, "ELEMENT_SET_NO": 999, "REV_AT_EPOCH": 87899, "BSTAR": 0.00014334, "MEAN_MOTION_DOT": 3.76e-06, "MEAN_MOTION_DDOT": 0}, "tle": {"line1": "1 34045U 93036JG  25337.41218971  .00000376  00000+0  14334-3 0  9993", "line2": "2 34045  74.0386 327.8996 0025348  54.2394 108.0917 14.34060223878991"}}, "geometry": {"type": "Point", "coordinates": [-20.929797303303154, 36.32479654880974]}}, {"type": "Feature", "properties": {"norad_id": 34046, "name": "COSMOS 2251 DEB", "group": "cosmos-2251-debris", "lat": -4.349351747909253, "lon": 25.64454888708393, "alt_km": 764.9469423146738, "timestamp": "2025-12-03T22:42:33.026436+00:00", "meta": {"OBJECT_NAME": "COSMOS 2251 DEB", "OBJECT_ID": "1993-036JH", "EPOCH": "2025-12-03T04:43:41.841120", "MEAN_MOTION": 14.46341993, "ECCENTRICITY": 0.0074888, "INCLINATION": 74.0404, "RA_OF_ASC_NODE": 28.2895, "ARG_OF_PERICENTER": 114.54, "MEAN_ANOMALY": 302.4126, "EPHEMERIS_TYPE": 0, "CLASSIFICATION_TYPE": "U", "NORAD_CAT_ID": 34046, "ELEMENT_SET_NO": 999, "REV_AT_EPOCH": 87688, "BSTAR": 0.0015494, "MEAN_MOTION_DOT": 5.733e-05, "MEAN_MOTION_DDOT": 0}, "tle": {"line1": "1 34046U 93036JH  25337.19701205  .00005733  00000+0  15494-2 0  9995", "line2": "2 34046  74.0404  28.2895 0074888 114.5400 302.4126 14.46341993876881"}}, "geometry": {"type": "Point", "coordinates": [25.64454888708393, -4.349351747909253]}}, {"type": "Feature", "properties": {"norad_id": 34050, "name": "COSMOS 2251 DEB", "group": "cosmos-2251-debris", "lat": 18.516241916612326, "lon": 30.618467084076638, "alt_km": 856.5105617953031, "timestamp": "2025-12-03T22:42:33.026445+00:00", "meta": {"OBJECT_NAME": "COSMOS 2251 DEB", "OBJECT_ID": "1993-036JM", "EPOCH": "2025-12-03T05:43:23.039040", "MEAN_MOTION": 13.96155396, "ECCENTRICITY": 0.0214693, "INCLINATION": 74.0888, "RA_OF_ASC_NODE": 26.35, "ARG_OF_PERICENTER": 93.1024, "MEAN_ANOMALY": 332.7127, "EPHEMERIS_TYPE": 0, "CLASSIFICATION_TYPE": "U", "NORAD_CAT_ID": 34050, "ELEMENT_SET_NO": 999, "REV_AT_EPOCH": 85299, "BSTAR": 0.00075386, "MEAN_MOTION_DOT": 1.235e-05, "MEAN_MOTION_DDOT": 0}, "tle": {"line1": "1 34050U 93036JM  25337.23846110  .00001235  00000+0  75386-3 0  9990", "line2": "2 34050  74.0888  26.3500 0214693  93.1024 332.7127 13.96155396852995"}}, "geometry": {"type": "Point", "coordinates": [30.618467084076638, 18.516241916612326]}}, {"type": "Feature", "properties": {"norad_id": 34053, "name": "COSMOS 2251 DEB", "group": "cosmos-2251-debris", "lat": 38.91014254007547, "lon": -90.12840995365377, "alt_km": 759.0233689272636, "timestamp": "2025-12-03T22:42:33.026454+00:00", "meta": {"OBJECT_NAME": "COSMOS 2251 DEB", "OBJECT_ID": "1993-036JQ", "EPOCH": "2025-12-03T04:43:36.660576", "MEAN_MOTION": 13.49136134, "ECCENTRICITY": 0.0421672, "INCLINATION": 73.8444, "RA_OF_ASC_NODE": 257.5475, "ARG_OF_PERICENTER": 47.7003, "MEAN_ANOMALY": 315.904, "EPHEMERIS_TYPE": 0, "CLASSIFICATION_TYPE": "U", "NORAD_CAT_ID": 34053, "ELEMENT_SET_NO": 999, "REV_AT_EPOCH": 82555, "BSTAR": 0.0010996, "MEAN_MOTION_DOT": 1.176e-05, "MEAN_MOTION_DDOT": 0}, "tle": {"line1": "1 34053U 93036JQ  25337.19695209  .00001176  00000+0  10996-2 0  9998", "line2": "2 34053  73.8444 257.5475 0421672  47.7003 315.9040 13.49136134825557"}}, "geometry": {"type": "Point", "coordinates": [-90.12840995365377, 38.91014254007547]}}, {"type": "Feature", "properties": {"norad_id": 34056, "name": "COSMOS 2251 DEB", "group": "cosmos-2251-debris", "lat": 59.40764877061197, "lon": -116.80941899505292, "alt_km": 736.4062022748258, "timestamp": "2025-12-03T22:42:33.026463+00:00", "meta": {"OBJECT_NAME": "COSMOS 2251 DEB", "OBJECT_ID": "1993-036JT", "EPOCH": "2025-12-03T07:04:49.638144", "MEAN_MOTION": 14.20478241, "ECCENTRICITY": 0.0124876, "INCLINATION": 74.0592, "RA_OF_ASC_NODE": 93.2637, "ARG_OF_PERICENTER": 143.5131, "MEAN_ANOMALY": 244.7901, "EPHEMERIS_TYPE": 0, "CLASSIFICATION_TYPE": "U", "NORAD_CAT_ID": 34056, "ELEMENT_SET_NO": 999, "REV_AT_EPOCH": 86277, "BSTAR": 0.0020872, "MEAN_MOTION_DOT": 4.824e-05, "MEAN_MOTION_DDOT": 0}, "tle": {"line1": "1 34056U 93036JT  25337.29501896  .00004824  00000+0  20872-2 0  9997", "line2": "2 34056  74.0592  93.2637 0124876 143.5131 244.7901 14.20478241862773"}}, "geometry": {"type": "Point", "coordinates": [-116.80941899505292, 59.40764877061197]}}]}